[{"OBJECT_NAME":"STARLINK-31778","OBJECT_ID":"2024-080B","EPOCH":"2026-03-09T06:16:57.991584","MEAN_MOTION":15.27576235,"ECCENTRICITY":0.00010359,"INCLINATION":43.0012,"RA_OF_ASC_NODE":37.174,"ARG_OF_PERICENTER":252.2473,"MEAN_ANOMALY":107.8266,"EPHEMERIS_TYPE":0,"CLASSIFICATION_TYPE":"U","NORAD_CAT_ID":59602,"ELEMENT_SET_NO":999,"REV_AT_EPOCH":10450,"BSTAR":3.540937e-6,"MEAN_MOTION_DOT":-1.65e-6,"MEAN_MOTION_DDOT":0},{"OBJECT_NAME":"COSMOS 546","OBJECT_ID":"1973-005A","EPOCH":"2026-03-09T21:40:39.247392","MEAN_MOTION":15.29707303,"ECCENTRICITY":0.00147738,"INCLINATION":50.6327,"RA_OF_ASC_NODE":289.914,"ARG_OF_PERICENTER":261.1516,"MEAN_ANOMALY":98.7778,"EPHEMERIS_TYPE":0,"CLASSIFICATION_TYPE":"U","NORAD_CAT_ID":6350,"ELEMENT_SET_NO":999,"REV_AT_EPOCH":92802,"BSTAR":9.142057e-5,"MEAN_MOTION_DOT":2.316e-5,"MEAN_MOTION_DDOT":0}]
